IRIDIUM 106             
1 41917U 17003A   25062.64636982  .00000290  00000+0  96383-4 0  9995
2 41917  86.3926 285.1488 0002188  72.3857 287.7578 14.34216191425765
IRIDIUM 103             
1 41918U 17003B   25062.91277520  .00000263  00000+0  86857-4 0  9990
2 41918  86.3929 284.9384 0002728  88.8277 271.3232 14.34216728425828
IRIDIUM 109             
1 41919U 17003C   25062.70978856  .00000418  00000+0  14225-3 0  9999
2 41919  86.3927 285.0752 0002224  92.7949 267.3501 14.34221169425761
IRIDIUM 102             
1 41920U 17003D   25063.16645939  .00000506  00000+0  17345-3 0  9999
2 41920  86.3927 284.8178 0001960  88.2724 271.8696 14.34215611425916
IRIDIUM 105             
1 41921U 17003E   25062.92789098  .00000014  00000+0 -22022-5 0  9993
2 41921  86.3922 253.3274 0002041  89.3179 270.8250 14.34217314427736
IRIDIUM 104             
1 41922U 17003F   25062.69076878  .00000549  00000+0  18896-3 0  9997
2 41922  86.3929 285.0523 0002427  97.0328 263.1144 14.34216268425836
IRIDIUM 114             
1 41923U 17003G   25063.11571987  .00000194  00000+0  62348-4 0  9995
2 41923  86.3927 284.8594 0002356  87.5505 272.5960 14.34218537425899
IRIDIUM 108             
1 41924U 17003H   25062.93470313  .00000047  00000+0  97063-5 0  9996
2 41924  86.3915 253.2326 0001992  82.4517 277.6905 14.34215804427703
